{
  "type": "FeatureCollection",
  "features": [
    {
      "type": "Feature",
      "properties": {
        "norad_id": 32114,
        "name": "FENGYUN 1C DEB",
        "group": "fengyun-1c-debris",
        "lat": -77.98345879954677,
        "lon": -138.7077869557222,
        "alt_km": 652.5243201046542,
        "timestamp": "2025-12-06T22:38:43.013627+00:00",
        "meta_object_name": "FENGYUN 1C DEB",
        "meta_object_id": "1999-025CRG",
        "meta_epoch": "2025-12-06T13:19:21.641376",
        "meta_mean_motion": 14.76489439,
        "meta_eccentricity": 0.00447682,
        "meta_inclination": 99.9287,
        "meta_ra_of_asc_node": 96.1919,
        "meta_arg_of_pericenter": 3.5911,
        "meta_mean_anomaly": 356.5605,
        "meta_ephemeris_type": 0,
        "meta_classification_type": "U",
        "meta_norad_cat_id": 32114,
        "meta_element_set_no": 999,
        "meta_rev_at_epoch": 65638,
        "meta_bstar": 0.0040574802,
        "meta_mean_motion_dot": 0.0002877,
        "meta_mean_motion_ddot": 0,
        "tle_line1": "1 32114U 99025CRG 25340.55511159  .00028770  00000+0  40575-2 0  9998",
        "tle_line2": "2 32114  99.9287  96.1919 0044768   3.5911 356.5605 14.76489439656383"
      },
      "geometry": {
        "type": "Point",
        "coordinates": [
          -138.7077869557222,
          -77.98345879954677
        ]
      }
    },
    {
      "type": "Feature",
      "properties": {
        "norad_id": 32117,
        "name": "FENGYUN 1C DEB",
        "group": "fengyun-1c-debris",
        "lat": 73.36600945744354,
        "lon": -123.11978281760858,
        "alt_km": 785.0246151958254,
        "timestamp": "2025-12-06T22:38:43.013637+00:00",
        "meta_object_name": "FENGYUN 1C DEB",
        "meta_object_id": "1999-025CRK",
        "meta_epoch": "2025-12-06T08:40:01.321824",
        "meta_mean_motion": 14.23900469,
        "meta_eccentricity": 0.00280103,
        "meta_inclination": 98.612,
        "meta_ra_of_asc_node": 25.8287,
        "meta_arg_of_pericenter": 109.8195,
        "meta_mean_anomaly": 250.6008,
        "meta_ephemeris_type": 0,
        "meta_classification_type": "U",
        "meta_norad_cat_id": 32117,
        "meta_element_set_no": 999,
        "meta_rev_at_epoch": 94706,
        "meta_bstar": 0.0019053006,
        "meta_mean_motion_dot": 4.343e-05,
        "meta_mean_motion_ddot": 0,
        "tle_line1": "1 32117U 99025CRK 25340.36112641  .00004343  00000+0  19053-2 0  9990",
        "tle_line2": "2 32117  98.6120  25.8287 0028010 109.8195 250.6008 14.23900469947063"
      },
      "geometry": {
        "type": "Point",
        "coordinates": [
          -123.11978281760858,
          73.36600945744354
        ]
      }
    },
    {
      "type": "Feature",
      "properties": {
        "norad_id": 32119,
        "name": "FENGYUN 1C DEB",
        "group": "fengyun-1c-debris",
        "lat": -27.65531823205589,
        "lon": 17.71646294134329,
        "alt_km": 936.9959681204309,
        "timestamp": "2025-12-06T22:38:43.013647+00:00",
        "meta_object_name": "FENGYUN 1C DEB",
        "meta_object_id": "1999-025CRM",
        "meta_epoch": "2025-12-05T08:00:17.816256",
        "meta_mean_motion": 14.02791969,
        "meta_eccentricity": 0.00850793,
        "meta_inclination": 99.888,
        "meta_ra_of_asc_node": 201.214,
        "meta_arg_of_pericenter": 72.2181,
        "meta_mean_anomaly": 288.8243,
        "meta_ephemeris_type": 0,
        "meta_classification_type": "U",
        "meta_norad_cat_id": 32119,
        "meta_element_set_no": 999,
        "meta_rev_at_epoch": 93624,
        "meta_bstar": 0.0014372,
        "meta_mean_motion_dot": 2.245e-05,
        "meta_mean_motion_ddot": 0,
        "tle_line1": "1 32119U 99025CRM 25339.33353954  .00002245  00000+0  14372-2 0  9999",
        "tle_line2": "2 32119  99.8880 201.2140 0085079  72.2181 288.8243 14.02791969936247"
      },
      "geometry": {
        "type": "Point",
        "coordinates": [
          17.71646294134329,
          -27.65531823205589
        ]
      }
    },
    {
      "type": "Feature",
      "properties": {
        "norad_id": 32123,
        "name": "FENGYUN 1C DEB",
        "group": "fengyun-1c-debris",
        "lat": -20.579020084032503,
        "lon": 151.6722009877529,
        "alt_km": 593.800469813681,
        "timestamp": "2025-12-06T22:38:43.013657+00:00",
        "meta_object_name": "FENGYUN 1C DEB",
        "meta_object_id": "1999-025CRR",
        "meta_epoch": "2025-12-06T06:52:18.378912",
        "meta_mean_motion": 14.61431053,
        "meta_eccentricity": 0.01599151,
        "meta_inclination": 98.9415,
        "meta_ra_of_asc_node": 147.5731,
        "meta_arg_of_pericenter": 313.0256,
        "meta_mean_anomaly": 169.6117,
        "meta_ephemeris_type": 0,
        "meta_classification_type": "U",
        "meta_norad_cat_id": 32123,
        "meta_element_set_no": 999,
        "meta_rev_at_epoch": 71280,
        "meta_bstar": 0.00044565052,
        "meta_mean_motion_dot": 2.581e-05,
        "meta_mean_motion_ddot": 0,
        "tle_line1": "1 32123U 99025CRR 25340.28632383  .00002581  00000+0  44565-3 0  9997",
        "tle_line2": "2 32123  98.9415 147.5731 0159915 313.0256 169.6117 14.61431053712804"
      },
      "geometry": {
        "type": "Point",
        "coordinates": [
          151.6722009877529,
          -20.579020084032503
        ]
      }
    },
    {
      "type": "Feature",
      "properties": {
        "norad_id": 32125,
        "name": "FENGYUN 1C DEB",
        "group": "fengyun-1c-debris",
        "lat": -49.96687661324788,
        "lon": -28.401483377416948,
        "alt_km": 563.5773558370893,
        "timestamp": "2025-12-06T22:38:43.013668+00:00",
        "meta_object_name": "FENGYUN 1C DEB",
        "meta_object_id": "1999-025CRT",
        "meta_epoch": "2025-11-30T16:29:46.563072",
        "meta_mean_motion": 14.69027096,
        "meta_eccentricity": 0.01775541,
        "meta_inclination": 99.061,
        "meta_ra_of_asc_node": 313.7121,
        "meta_arg_of_pericenter": 0.429,
        "meta_mean_anomaly": 359.7033,
        "meta_ephemeris_type": 0,
        "meta_classification_type": "U",
        "meta_norad_cat_id": 32125,
        "meta_element_set_no": 999,
        "meta_rev_at_epoch": 70346,
        "meta_bstar": 0.0033542642,
        "meta_mean_motion_dot": 0.00025065,
        "meta_mean_motion_ddot": 0,
        "tle_line1": "1 32125U 99025CRT 25334.68734448  .00025065  00000+0  33543-2 0  9996",
        "tle_line2": "2 32125  99.0610 313.7121 0177554   0.4290 359.7033 14.69027096703466"
      },
      "geometry": {
        "type": "Point",
        "coordinates": [
          -28.401483377416948,
          -49.96687661324788
        ]
      }
    },
    {
      "type": "Feature",
      "properties": {
        "norad_id": 32126,
        "name": "FENGYUN 1C DEB",
        "group": "fengyun-1c-debris",
        "lat": -79.58199761430093,
        "lon": -81.79833775925108,
        "alt_km": 846.3957087380686,
        "timestamp": "2025-12-06T22:38:43.013678+00:00",
        "meta_object_name": "FENGYUN 1C DEB",
        "meta_object_id": "1999-025CRU",
        "meta_epoch": "2025-12-06T08:53:24.763200",
        "meta_mean_motion": 13.56781001,
        "meta_eccentricity": 0.02813956,
        "meta_inclination": 99.1098,
        "meta_ra_of_asc_node": 216.9018,
        "meta_arg_of_pericenter": 271.8645,
        "meta_mean_anomaly": 85.0292,
        "meta_ephemeris_type": 0,
        "meta_classification_type": "U",
        "meta_norad_cat_id": 32126,
        "meta_element_set_no": 999,
        "meta_rev_at_epoch": 61628,
        "meta_bstar": 0.0020875862,
        "meta_mean_motion_dot": 1.869e-05,
        "meta_mean_motion_ddot": 0,
        "tle_line1": "1 32126U 99025CRU 25340.37042550  .00001869  00000+0  20876-2 0  9997",
        "tle_line2": "2 32126  99.1098 216.9018 0281395 271.8645  85.0292 13.56781001616281"
      },
      "geometry": {
        "type": "Point",
        "coordinates": [
          -81.79833775925108,
          -79.58199761430093
        ]
      }
    },
    {
      "type": "Feature",
      "properties": {
        "norad_id": 32128,
        "name": "FENGYUN 1C DEB",
        "group": "fengyun-1c-debris",
        "lat": 28.019488296982473,
        "lon": -147.86619864940678,
        "alt_km": 887.3922894372572,
        "timestamp": "2025-12-06T22:38:43.013688+00:00",
        "meta_object_name": "FENGYUN 1C DEB",
        "meta_object_id": "1999-025CRW",
        "meta_epoch": "2025-12-06T09:49:24.903264",
        "meta_mean_motion": 13.94188504,
        "meta_eccentricity": 0.03967892,
        "meta_inclination": 99.0323,
        "meta_ra_of_asc_node": 26.7544,
        "meta_arg_of_pericenter": 240.2207,
        "meta_mean_anomaly": 115.894,
        "meta_ephemeris_type": 0,
        "meta_classification_type": "U",
        "meta_norad_cat_id": 32128,
        "meta_element_set_no": 999,
        "meta_rev_at_epoch": 62897,
        "meta_bstar": 0.0011979648,
        "meta_mean_motion_dot": 3.014e-05,
        "meta_mean_motion_ddot": 0,
        "tle_line1": "1 32128U 99025CRW 25340.40931601  .00003014  00000+0  11980-2 0  9997",
        "tle_line2": "2 32128  99.0323  26.7544 0396789 240.2207 115.8940 13.94188504628974"
      },
      "geometry": {
        "type": "Point",
        "coordinates": [
          -147.86619864940678,
          28.019488296982473
        ]
      }
    }
  ]
}